[{"OBJECT_NAME":"QIANFAN-1","OBJECT_ID":"2024-140A","EPOCH":"2026-02-01T20:54:13.834080","MEAN_MOTION":13.50992933,"ECCENTRICITY":0.00192838,"INCLINATION":88.9766,"RA_OF_ASC_NODE":293.997,"ARG_OF_PERICENTER":68.0802,"MEAN_ANOMALY":292.2397,"EPHEMERIS_TYPE":0,"CLASSIFICATION_TYPE":"U","NORAD_CAT_ID":60379,"ELEMENT_SET_NO":999,"REV_AT_EPOCH":7425,"BSTAR":0.00023781157,"MEAN_MOTION_DOT":1.66e-6,"MEAN_MOTION_DDOT":0},{"OBJECT_NAME":"QIANFAN-2","OBJECT_ID":"2024-140B","EPOCH":"2026-02-01T21:35:43.023264","MEAN_MOTION":13.50996913,"ECCENTRICITY":0.00142792,"INCLINATION":88.9753,"RA_OF_ASC_NODE":293.8263,"ARG_OF_PERICENTER":43.698,"MEAN_ANOMALY":316.5299,"EPHEMERIS_TYPE":0,"CLASSIFICATION_TYPE":"U","NORAD_CAT_ID":60380,"ELEMENT_SET_NO":999,"REV_AT_EPOCH":7431,"BSTAR":0.00022900793,"MEAN_MOTION_DOT":1.6e-6,"MEAN_MOTION_DDOT":0},{"OBJECT_NAME":"QIANFAN-3","OBJECT_ID":"2024-140C","EPOCH":"2026-02-01T21:47:27.911616","MEAN_MOTION":13.50997529,"ECCENTRICITY":0.00155793,"INCLINATION":88.9745,"RA_OF_ASC_NODE":293.9542,"ARG_OF_PERICENTER":54.6156,"MEAN_ANOMALY":305.6448,"EPHEMERIS_TYPE":0,"CLASSIFICATION_TYPE":"U","NORAD_CAT_ID":60381,"ELEMENT_SET_NO":999,"REV_AT_EPOCH":7422,"BSTAR":0.00024521228,"MEAN_MOTION_DOT":1.71e-6,"MEAN_MOTION_DDOT":0},{"OBJECT_NAME":"QIANFAN-4","OBJECT_ID":"2024-140D","EPOCH":"2026-02-01T21:11:56.523840","MEAN_MOTION":13.50993037,"ECCENTRICITY":0.00145524,"INCLINATION":88.977,"RA_OF_ASC_NODE":293.8673,"ARG_OF_PERICENTER":46.0191,"MEAN_ANOMALY":314.2158,"EPHEMERIS_TYPE":0,"CLASSIFICATION_TYPE":"U","NORAD_CAT_ID":60382,"ELEMENT_SET_NO":999,"REV_AT_EPOCH":7434,"BSTAR":0.00022532128,"MEAN_MOTION_DOT":1.58e-6,"MEAN_MOTION_DDOT":0},{"OBJECT_NAME":"QIANFAN-5","OBJECT_ID":"2024-140E","EPOCH":"2026-02-01T22:23:09.443616","MEAN_MOTION":13.50995275,"ECCENTRICITY":0.0016942,"INCLINATION":88.9745,"RA_OF_ASC_NODE":293.977,"ARG_OF_PERICENTER":64.5105,"MEAN_ANOMALY":295.7796,"EPHEMERIS_TYPE":0,"CLASSIFICATION_TYPE":"U","NORAD_CAT_ID":60383,"ELEMENT_SET_NO":999,"REV_AT_EPOCH":7421,"BSTAR":0.0002484935,"MEAN_MOTION_DOT":1.73e-6,"MEAN_MOTION_DDOT":0},{"OBJECT_NAME":"QIANFAN-6","OBJECT_ID":"2024-140F","EPOCH":"2026-02-01T21:06:07.393536","MEAN_MOTION":13.5099506,"ECCENTRICITY":0.0014747,"INCLINATION":88.9772,"RA_OF_ASC_NODE":293.7425,"ARG_OF_PERICENTER":51.3263,"MEAN_ANOMALY":308.9205,"EPHEMERIS_TYPE":0,"CLASSIFICATION_TYPE":"U","NORAD_CAT_ID":60384,"ELEMENT_SET_NO":999,"REV_AT_EPOCH":7440,"BSTAR":0.00021056371,"MEAN_MOTION_DOT":1.48e-6,"MEAN_MOTION_DDOT":0},{"OBJECT_NAME":"QIANFAN-7","OBJECT_ID":"2024-140G","EPOCH":"2026-02-01T20:07:40.499616","MEAN_MOTION":14.27742445,"ECCENTRICITY":0.0013062,"INCLINATION":88.978,"RA_OF_ASC_NODE":287.7278,"ARG_OF_PERICENTER":229.1781,"MEAN_ANOMALY":130.8281,"EPHEMERIS_TYPE":0,"CLASSIFICATION_TYPE":"U","NORAD_CAT_ID":60385,"ELEMENT_SET_NO":999,"REV_AT_EPOCH":7768,"BSTAR":0.00023997945,"MEAN_MOTION_DOT":6.07e-6,"MEAN_MOTION_DDOT":0},{"OBJECT_NAME":"QIANFAN-8","OBJECT_ID":"2024-140H","EPOCH":"2026-02-01T21:18:01.399680","MEAN_MOTION":13.50996447,"ECCENTRICITY":0.00182335,"INCLINATION":88.9773,"RA_OF_ASC_NODE":293.9799,"ARG_OF_PERICENTER":52.7141,"MEAN_ANOMALY":307.5669,"EPHEMERIS_TYPE":0,"CLASSIFICATION_TYPE":"U","NORAD_CAT_ID":60386,"ELEMENT_SET_NO":999,"REV_AT_EPOCH":7425,"BSTAR":0.00021665605,"MEAN_MOTION_DOT":1.52e-6,"MEAN_MOTION_DDOT":0},{"OBJECT_NAME":"QIANFAN-9","OBJECT_ID":"2024-140J","EPOCH":"2026-02-01T22:28:56.417376","MEAN_MOTION":13.50991331,"ECCENTRICITY":0.0017918,"INCLINATION":88.9772,"RA_OF_ASC_NODE":294.0491,"ARG_OF_PERICENTER":52.3641,"MEAN_ANOMALY":307.9132,"EPHEMERIS_TYPE":0,"CLASSIFICATION_TYPE":"U","NORAD_CAT_ID":60387,"ELEMENT_SET_NO":999,"REV_AT_EPOCH":7424,"BSTAR":0.00024117151,"MEAN_MOTION_DOT":1.68e-6,"MEAN_MOTION_DDOT":0},{"OBJECT_NAME":"QIANFAN-10","OBJECT_ID":"2024-140K","EPOCH":"2026-02-01T22:34:49.965312","MEAN_MOTION":13.50997114,"ECCENTRICITY":0.00159855,"INCLINATION":88.978,"RA_OF_ASC_NODE":293.4008,"ARG_OF_PERICENTER":32.0389,"MEAN_ANOMALY":328.1731,"EPHEMERIS_TYPE":0,"CLASSIFICATION_TYPE":"U","NORAD_CAT_ID":60388,"ELEMENT_SET_NO":999,"REV_AT_EPOCH":7437,"BSTAR":0.00022008283,"MEAN_MOTION_DOT":1.54e-6,"MEAN_MOTION_DDOT":0},{"OBJECT_NAME":"QIANFAN-11","OBJECT_ID":"2024-140L","EPOCH":"2026-02-01T21:41:44.639232","MEAN_MOTION":13.50996576,"ECCENTRICITY":0.00159494,"INCLINATION":88.9707,"RA_OF_ASC_NODE":293.9537,"ARG_OF_PERICENTER":52.5381,"MEAN_ANOMALY":307.7218,"EPHEMERIS_TYPE":0,"CLASSIFICATION_TYPE":"U","NORAD_CAT_ID":60389,"ELEMENT_SET_NO":999,"REV_AT_EPOCH":7402,"BSTAR":0.00024594787,"MEAN_MOTION_DOT":1.71e-6,"MEAN_MOTION_DDOT":0},{"OBJECT_NAME":"QIANFAN-12","OBJECT_ID":"2024-140M","EPOCH":"2026-02-01T22:11:17.352960","MEAN_MOTION":13.50994233,"ECCENTRICITY":0.00148549,"INCLINATION":88.9751,"RA_OF_ASC_NODE":294.0172,"ARG_OF_PERICENTER":59.9271,"MEAN_ANOMALY":300.3351,"EPHEMERIS_TYPE":0,"CLASSIFICATION_TYPE":"U","NORAD_CAT_ID":60390,"ELEMENT_SET_NO":999,"REV_AT_EPOCH":7415,"BSTAR":0.00024778845,"MEAN_MOTION_DOT":1.72e-6,"MEAN_MOTION_DDOT":0},{"OBJECT_NAME":"QIANFAN-13","OBJECT_ID":"2024-140N","EPOCH":"2026-02-01T21:29:47.309280","MEAN_MOTION":13.50994609,"ECCENTRICITY":0.00146981,"INCLINATION":88.9762,"RA_OF_ASC_NODE":294.1264,"ARG_OF_PERICENTER":62.3801,"MEAN_ANOMALY":297.884,"EPHEMERIS_TYPE":0,"CLASSIFICATION_TYPE":"U","NORAD_CAT_ID":60391,"ELEMENT_SET_NO":999,"REV_AT_EPOCH":7417,"BSTAR":0.00023519588,"MEAN_MOTION_DOT":1.64e-6,"MEAN_MOTION_DDOT":0},{"OBJECT_NAME":"QIANFAN-14","OBJECT_ID":"2024-140P","EPOCH":"2026-02-01T22:05:14.911872","MEAN_MOTION":13.50994316,"ECCENTRICITY":0.00183853,"INCLINATION":88.9742,"RA_OF_ASC_NODE":294.0106,"ARG_OF_PERICENTER":61.8737,"MEAN_ANOMALY":298.4269,"EPHEMERIS_TYPE":0,"CLASSIFICATION_TYPE":"U","NORAD_CAT_ID":60392,"ELEMENT_SET_NO":999,"REV_AT_EPOCH":7418,"BSTAR":0.00023717333,"MEAN_MOTION_DOT":1.65e-6,"MEAN_MOTION_DDOT":0},{"OBJECT_NAME":"QIANFAN-15","OBJECT_ID":"2024-140Q","EPOCH":"2026-02-01T22:17:13.510176","MEAN_MOTION":13.50992552,"ECCENTRICITY":0.00140278,"INCLINATION":88.9765,"RA_OF_ASC_NODE":293.9784,"ARG_OF_PERICENTER":50.2738,"MEAN_ANOMALY":309.9647,"EPHEMERIS_TYPE":0,"CLASSIFICATION_TYPE":"U","NORAD_CAT_ID":60393,"ELEMENT_SET_NO":999,"REV_AT_EPOCH":7417,"BSTAR":0.00023605693,"MEAN_MOTION_DOT":1.65e-6,"MEAN_MOTION_DDOT":0},{"OBJECT_NAME":"QIANFAN-16","OBJECT_ID":"2024-140R","EPOCH":"2026-02-01T21:59:21.110784","MEAN_MOTION":13.5099819,"ECCENTRICITY":0.00163467,"INCLINATION":88.9768,"RA_OF_ASC_NODE":294.1013,"ARG_OF_PERICENTER":65.6287,"MEAN_ANOMALY":294.6568,"EPHEMERIS_TYPE":0,"CLASSIFICATION_TYPE":"U","NORAD_CAT_ID":60394,"ELEMENT_SET_NO":999,"REV_AT_EPOCH":7408,"BSTAR":0.00023661294,"MEAN_MOTION_DOT":1.65e-6,"MEAN_MOTION_DDOT":0},{"OBJECT_NAME":"QIANFAN-17","OBJECT_ID":"2024-140S","EPOCH":"2026-02-01T21:53:38.313600","MEAN_MOTION":13.50997771,"ECCENTRICITY":0.00166897,"INCLINATION":88.9779,"RA_OF_ASC_NODE":294.1532,"ARG_OF_PERICENTER":59.9221,"MEAN_ANOMALY":300.3582,"EPHEMERIS_TYPE":0,"CLASSIFICATION_TYPE":"U","NORAD_CAT_ID":60395,"ELEMENT_SET_NO":999,"REV_AT_EPOCH":7504,"BSTAR":0.00026803683,"MEAN_MOTION_DOT":1.85e-6,"MEAN_MOTION_DDOT":0}]
