QIANFAN-1               
1 60379U 24140A   26032.87099345  .00000166  00000+0  23781-3 0  9990
2 60379  88.9766 293.9970 0019283  68.0802 292.2397 13.50992933 74253
QIANFAN-2               
1 60380U 24140B   26032.89980351  .00000160  00000+0  22901-3 0  9997
2 60380  88.9753 293.8263 0014279  43.6980 316.5299 13.50996913 74311
QIANFAN-3               
1 60381U 24140C   26032.90796194  .00000171  00000+0  24521-3 0  9992
2 60381  88.9745 293.9542 0015579  54.6156 305.6448 13.50997529 74224
QIANFAN-4               
1 60382U 24140D   26032.88329310  .00000158  00000+0  22532-3 0  9997
2 60382  88.9770 293.8673 0014552  46.0191 314.2158 13.50993037 74348
QIANFAN-5               
1 60383U 24140E   26032.93274819  .00000173  00000+0  24849-3 0  9997
2 60383  88.9745 293.9770 0016942  64.5105 295.7796 13.50995275 74218
QIANFAN-6               
1 60384U 24140F   26032.87925224  .00000148  00000+0  21056-3 0  9993
2 60384  88.9772 293.7425 0014747  51.3263 308.9205 13.50995060 74409
QIANFAN-7               
1 60385U 24140G   26032.83866319  .00000607  00000+0  23998-3 0  9996
2 60385  88.9780 287.7278 0013062 229.1781 130.8281 14.27742445 77688
QIANFAN-8               
1 60386U 24140H   26032.88751620  .00000152  00000+0  21666-3 0  9995
2 60386  88.9773 293.9799 0018233  52.7141 307.5669 13.50996447 74254
QIANFAN-9               
1 60387U 24140J   26032.93676409  .00000168  00000+0  24117-3 0  9994
2 60387  88.9772 294.0491 0017918  52.3641 307.9132 13.50991331 74240
QIANFAN-10              
1 60388U 24140K   26032.94085608  .00000154  00000+0  22008-3 0  9993
2 60388  88.9780 293.4008 0015985  32.0389 328.1731 13.50997114 74372
QIANFAN-11              
1 60389U 24140L   26032.90398888  .00000171  00000+0  24595-3 0  9999
2 60389  88.9707 293.9537 0015949  52.5381 307.7218 13.50996576 74029
QIANFAN-12              
1 60390U 24140M   26032.92450640  .00000172  00000+0  24779-3 0  9993
2 60390  88.9751 294.0172 0014854  59.9271 300.3351 13.50994233 74159
QIANFAN-13              
1 60391U 24140N   26032.89568645  .00000164  00000+0  23520-3 0  9999
2 60391  88.9762 294.1264 0014698  62.3801 297.8840 13.50994609 74170
QIANFAN-14              
1 60392U 24140P   26032.92031148  .00000165  00000+0  23717-3 0  9996
2 60392  88.9742 294.0106 0018385  61.8737 298.4269 13.50994316 74180
QIANFAN-15              
1 60393U 24140Q   26032.92862859  .00000165  00000+0  23606-3 0  9995
2 60393  88.9765 293.9784 0014027  50.2738 309.9647 13.50992552 74175
QIANFAN-16              
1 60394U 24140R   26032.91621656  .00000165  00000+0  23661-3 0  9994
2 60394  88.9768 294.1013 0016346  65.6287 294.6568 13.50998190 74088
QIANFAN-17              
1 60395U 24140S   26032.91224900  .00000185  00000+0  26804-3 0  9990
2 60395  88.9779 294.1532 0016689  59.9221 300.3582 13.50997771 75043
